{"fetched_at":"2026-07-16T06:43:00.092Z","source":"https://celestrak.org/NORAD/elements/gp.php?NAME=HULIANWANG&FORMAT=JSON","constellation":"guowang","records":[{"OBJECT_NAME":"HULIANWANG DIGUI-60","OBJECT_ID":"2025-174C","EPOCH":"2026-07-15T21:56:47.255712","CLASSIFICATION_TYPE":"U","MEAN_MOTION":13.24407011,"ECCENTRICITY":0.00018396,"INCLINATION":86.4938,"RA_OF_ASC_NODE":242.3006,"ARG_OF_PERICENTER":102.4537,"MEAN_ANOMALY":257.6803,"EPHEMERIS_TYPE":0,"NORAD_CAT_ID":65166,"ELEMENT_SET_NO":999,"REV_AT_EPOCH":4459,"BSTAR":0.00012361278,"MEAN_MOTION_DOT":6.8e-7,"MEAN_MOTION_DDOT":0},{"OBJECT_NAME":"HULIANWANG DIGUI-61","OBJECT_ID":"2025-174D","EPOCH":"2026-07-15T22:07:41.589696","CLASSIFICATION_TYPE":"U","MEAN_MOTION":13.24407637,"ECCENTRICITY":0.00016661,"INCLINATION":86.4947,"RA_OF_ASC_NODE":242.3315,"ARG_OF_PERICENTER":100.7005,"MEAN_ANOMALY":259.4317,"EPHEMERIS_TYPE":0,"NORAD_CAT_ID":65167,"ELEMENT_SET_NO":999,"REV_AT_EPOCH":4459,"BSTAR":0.00012644103,"MEAN_MOTION_DOT":6.9e-7,"MEAN_MOTION_DDOT":0},{"OBJECT_NAME":"HULIANWANG DIGUI-62","OBJECT_ID":"2025-174E","EPOCH":"2026-07-15T22:18:24.108480","CLASSIFICATION_TYPE":"U","MEAN_MOTION":13.2440924,"ECCENTRICITY":0.00017464,"INCLINATION":86.4888,"RA_OF_ASC_NODE":242.1436,"ARG_OF_PERICENTER":104.9726,"MEAN_ANOMALY":255.1601,"EPHEMERIS_TYPE":0,"NORAD_CAT_ID":65168,"ELEMENT_SET_NO":999,"REV_AT_EPOCH":4459,"BSTAR":0.00011739908,"MEAN_MOTION_DOT":6.5e-7,"MEAN_MOTION_DDOT":0},{"OBJECT_NAME":"HULIANWANG DIGUI-63","OBJECT_ID":"2025-174F","EPOCH":"2026-07-15T22:29:10.659552","CLASSIFICATION_TYPE":"U","MEAN_MOTION":13.24403574,"ECCENTRICITY":0.00016376,"INCLINATION":86.4941,"RA_OF_ASC_NODE":242.3177,"ARG_OF_PERICENTER":104.7136,"MEAN_ANOMALY":255.4179,"EPHEMERIS_TYPE":0,"NORAD_CAT_ID":65169,"ELEMENT_SET_NO":999,"REV_AT_EPOCH":4459,"BSTAR":0.00010571638,"MEAN_MOTION_DOT":6e-7,"MEAN_MOTION_DDOT":0},{"OBJECT_NAME":"HULIANWANG DIGUI-64","OBJECT_ID":"2025-174G","EPOCH":"2026-07-15T22:40:17.185440","CLASSIFICATION_TYPE":"U","MEAN_MOTION":13.24407522,"ECCENTRICITY":0.00018081,"INCLINATION":86.49,"RA_OF_ASC_NODE":242.188,"ARG_OF_PERICENTER":104.3077,"MEAN_ANOMALY":255.8258,"EPHEMERIS_TYPE":0,"NORAD_CAT_ID":65170,"ELEMENT_SET_NO":999,"REV_AT_EPOCH":4459,"BSTAR":0.00006295467,"MEAN_MOTION_DOT":4.2e-7,"MEAN_MOTION_DDOT":0},{"OBJECT_NAME":"HULIANWANG DIGUI-65","OBJECT_ID":"2025-174H","EPOCH":"2026-07-15T23:01:58.230336","CLASSIFICATION_TYPE":"U","MEAN_MOTION":13.24407541,"ECCENTRICITY":0.00017072,"INCLINATION":86.4863,"RA_OF_ASC_NODE":242.0757,"ARG_OF_PERICENTER":99.5513,"MEAN_ANOMALY":260.5814,"EPHEMERIS_TYPE":0,"NORAD_CAT_ID":65171,"ELEMENT_SET_NO":999,"REV_AT_EPOCH":4459,"BSTAR":0.000047474936,"MEAN_MOTION_DOT":3.5e-7,"MEAN_MOTION_DDOT":0},{"OBJECT_NAME":"HULIANWANG DIGUI-66","OBJECT_ID":"2025-174J","EPOCH":"2026-07-15T22:51:09.178848","CLASSIFICATION_TYPE":"U","MEAN_MOTION":13.24407185,"ECCENTRICITY":0.00018331,"INCLINATION":86.4899,"RA_OF_ASC_NODE":242.1893,"ARG_OF_PERICENTER":102.5631,"MEAN_ANOMALY":257.5709,"EPHEMERIS_TYPE":0,"NORAD_CAT_ID":65172,"ELEMENT_SET_NO":999,"REV_AT_EPOCH":4459,"BSTAR":0.000034657908,"MEAN_MOTION_DOT":3e-7,"MEAN_MOTION_DDOT":0},{"OBJECT_NAME":"HULIANWANG DIGUI-67","OBJECT_ID":"2025-174K","EPOCH":"2026-07-15T21:24:04.360032","CLASSIFICATION_TYPE":"U","MEAN_MOTION":13.24408671,"ECCENTRICITY":0.000181,"INCLINATION":86.491,"RA_OF_ASC_NODE":242.2582,"ARG_OF_PERICENTER":100.767,"MEAN_ANOMALY":259.3668,"EPHEMERIS_TYPE":0,"NORAD_CAT_ID":65173,"ELEMENT_SET_NO":999,"REV_AT_EPOCH":4455,"BSTAR":0.000047905775,"MEAN_MOTION_DOT":3.5e-7,"MEAN_MOTION_DDOT":0},{"OBJECT_NAME":"HULIANWANG DIGUI-68","OBJECT_ID":"2025-178A","EPOCH":"2026-07-15T21:56:32.266176","CLASSIFICATION_TYPE":"U","MEAN_MOTION":13.24411272,"ECCENTRICITY":0.00020022,"INCLINATION":86.4989,"RA_OF_ASC_NODE":3.8253,"ARG_OF_PERICENTER":91.6496,"MEAN_ANOMALY":268.4868,"EPHEMERIS_TYPE":0,"NORAD_CAT_ID":65228,"ELEMENT_SET_NO":999,"REV_AT_EPOCH":4411,"BSTAR":-0.000054696861,"MEAN_MOTION_DOT":-9e-8,"MEAN_MOTION_DDOT":0},{"OBJECT_NAME":"HULIANWANG DIGUI-69","OBJECT_ID":"2025-178B","EPOCH":"2026-07-15T21:45:49.136544","CLASSIFICATION_TYPE":"U","MEAN_MOTION":13.24412705,"ECCENTRICITY":0.00019153,"INCLINATION":86.5009,"RA_OF_ASC_NODE":3.8884,"ARG_OF_PERICENTER":92.0188,"MEAN_ANOMALY":268.1166,"EPHEMERIS_TYPE":0,"NORAD_CAT_ID":65229,"ELEMENT_SET_NO":999,"REV_AT_EPOCH":4411,"BSTAR":-0.000039153652,"MEAN_MOTION_DOT":-2e-8,"MEAN_MOTION_DDOT":0},{"OBJECT_NAME":"HULIANWANG DIGUI-70","OBJECT_ID":"2025-178C","EPOCH":"2026-07-15T21:34:55.815168","CLASSIFICATION_TYPE":"U","MEAN_MOTION":13.24411823,"ECCENTRICITY":0.00020057,"INCLINATION":86.4948,"RA_OF_ASC_NODE":3.6815,"ARG_OF_PERICENTER":90.0363,"MEAN_ANOMALY":270.1001,"EPHEMERIS_TYPE":0,"NORAD_CAT_ID":65230,"ELEMENT_SET_NO":999,"REV_AT_EPOCH":4411,"BSTAR":-0.000022640953,"MEAN_MOTION_DOT":5e-8,"MEAN_MOTION_DDOT":0},{"OBJECT_NAME":"HULIANWANG DIGUI-71","OBJECT_ID":"2025-178D","EPOCH":"2026-07-15T23:12:51.874848","CLASSIFICATION_TYPE":"U","MEAN_MOTION":13.24411528,"ECCENTRICITY":0.00019814,"INCLINATION":86.5006,"RA_OF_ASC_NODE":3.8478,"ARG_OF_PERICENTER":90.7138,"MEAN_ANOMALY":269.4223,"EPHEMERIS_TYPE":0,"NORAD_CAT_ID":65231,"ELEMENT_SET_NO":999,"REV_AT_EPOCH":4412,"BSTAR":0.000005716039,"MEAN_MOTION_DOT":1.7e-7,"MEAN_MOTION_DDOT":0},{"OBJECT_NAME":"HULIANWANG DIGUI-72","OBJECT_ID":"2025-178E","EPOCH":"2026-07-15T21:13:11.854272","CLASSIFICATION_TYPE":"U","MEAN_MOTION":13.24411006,"ECCENTRICITY":0.00019867,"INCLINATION":86.4989,"RA_OF_ASC_NODE":3.8122,"ARG_OF_PERICENTER":90.9973,"MEAN_ANOMALY":269.1389,"EPHEMERIS_TYPE":0,"NORAD_CAT_ID":65232,"ELEMENT_SET_NO":999,"REV_AT_EPOCH":4411,"BSTAR":0.000034855597,"MEAN_MOTION_DOT":3e-7,"MEAN_MOTION_DDOT":0},{"OBJECT_NAME":"HULIANWANG DIGUI-73","OBJECT_ID":"2025-187A","EPOCH":"2026-07-15T22:20:46.491360","CLASSIFICATION_TYPE":"U","MEAN_MOTION":13.29323536,"ECCENTRICITY":0.00001135,"INCLINATION":50.0051,"RA_OF_ASC_NODE":102.7914,"ARG_OF_PERICENTER":314.7782,"MEAN_ANOMALY":45.308,"EPHEMERIS_TYPE":0,"NORAD_CAT_ID":65305,"ELEMENT_SET_NO":999,"REV_AT_EPOCH":4352,"BSTAR":0.000056371622,"MEAN_MOTION_DOT":-9.8e-7,"MEAN_MOTION_DDOT":0},{"OBJECT_NAME":"HULIANWANG DIGUI-74","OBJECT_ID":"2025-187B","EPOCH":"2026-07-15T21:56:50.939808","CLASSIFICATION_TYPE":"U","MEAN_MOTION":13.29321598,"ECCENTRICITY":0.00001169,"INCLINATION":50.0093,"RA_OF_ASC_NODE":102.813,"ARG_OF_PERICENTER":305.8218,"MEAN_ANOMALY":54.2643,"EPHEMERIS_TYPE":0,"NORAD_CAT_ID":65306,"ELEMENT_SET_NO":999,"REV_AT_EPOCH":4352,"BSTAR":0.000042922683,"MEAN_MOTION_DOT":-0.00000104,"MEAN_MOTION_DDOT":0},{"OBJECT_NAME":"HULIANWANG DIGUI-75","OBJECT_ID":"2025-187C","EPOCH":"2026-07-15T23:21:04.449024","CLASSIFICATION_TYPE":"U","MEAN_MOTION":13.2932276,"ECCENTRICITY":0.00001115,"INCLINATION":50.0086,"RA_OF_ASC_NODE":102.4371,"ARG_OF_PERICENTER":317.2662,"MEAN_ANOMALY":42.8202,"EPHEMERIS_TYPE":0,"NORAD_CAT_ID":65307,"ELEMENT_SET_NO":999,"REV_AT_EPOCH":4353,"BSTAR":0.000031731773,"MEAN_MOTION_DOT":-0.00000109,"MEAN_MOTION_DDOT":0}]}
