HULIANWANG DIGUI-60     
1 65166U 25174C   26196.91443583  .00000068  00000+0  12361-3 0  9993
2 65166  86.4938 242.3006 0001839 102.4537 257.6803 13.24407011 44590
HULIANWANG DIGUI-61     
1 65167U 25174D   26196.92200914  .00000069  00000+0  12644-3 0  9999
2 65167  86.4947 242.3315 0001666 100.7005 259.4317 13.24407637 44597
HULIANWANG DIGUI-62     
1 65168U 25174E   26196.92944570  .00000065  00000+0  11740-3 0  9995
2 65168  86.4888 242.1436 0001746 104.9726 255.1601 13.24409240 44590
HULIANWANG DIGUI-63     
1 65169U 25174F   26196.93692893  .00000060  00000+0  10572-3 0  9992
2 65169  86.4941 242.3177 0001637 104.7136 255.4179 13.24403574 44594
HULIANWANG DIGUI-64     
1 65170U 25174G   26196.94464335  .00000042  00000+0  62955-4 0  9996
2 65170  86.4900 242.1880 0001808 104.3077 255.8258 13.24407522 44599
HULIANWANG DIGUI-65     
1 65171U 25174H   26196.95970174  .00000035  00000+0  47475-4 0  9993
2 65171  86.4863 242.0757 0001707  99.5513 260.5814 13.24407541 44590
HULIANWANG DIGUI-66     
1 65172U 25174J   26196.95218957  .00000030  00000+0  34658-4 0  9992
2 65172  86.4899 242.1893 0001833 102.5631 257.5709 13.24407185 44591
HULIANWANG DIGUI-67     
1 65173U 25174K   26196.89171713  .00000035  00000+0  47906-4 0  9999
2 65173  86.4910 242.2582 0001810 100.7670 259.3668 13.24408671 44551
HULIANWANG DIGUI-68     
1 65228U 25178A   26196.91426234 -.00000009  00000+0 -54697-4 0  9996
2 65228  86.4989   3.8253 0002002  91.6496 268.4868 13.24411272 44118
HULIANWANG DIGUI-69     
1 65229U 25178B   26196.90681871 -.00000002  00000+0 -39154-4 0  9990
2 65229  86.5009   3.8884 0001915  92.0188 268.1166 13.24412705 44118
HULIANWANG DIGUI-70     
1 65230U 25178C   26196.89925712  .00000005  00000+0 -22641-4 0  9990
2 65230  86.4948   3.6815 0002005  90.0363 270.1001 13.24411823 44118
HULIANWANG DIGUI-71     
1 65231U 25178D   26196.96726707  .00000017  00000+0  57160-5 0  9999
2 65231  86.5006   3.8478 0001981  90.7138 269.4223 13.24411528 44121
HULIANWANG DIGUI-72     
1 65232U 25178E   26196.88416498  .00000030  00000+0  34856-4 0  9995
2 65232  86.4989   3.8122 0001986  90.9973 269.1389 13.24411006 44111
HULIANWANG DIGUI-73     
1 65305U 25187A   26196.93109365 -.00000098  00000+0  56372-4 0  9996
2 65305  50.0051 102.7914 0000113 314.7782  45.3080 13.29323536 43524
HULIANWANG DIGUI-74     
1 65306U 25187B   26196.91447847 -.00000104  00000+0  42923-4 0  9990
2 65306  50.0093 102.8130 0000116 305.8218  54.2643 13.29321598 43520
HULIANWANG DIGUI-75     
1 65307U 25187C   26196.97296816 -.00000109  00000+0  31732-4 0  9996
2 65307  50.0086 102.4371 0000111 317.2662  42.8202 13.29322760 43538
